[{"OBJECT_NAME":"TRANSPORTER-12 OBJECT AZ","OBJECT_ID":"2025-009AZ","EPOCH":"2026-03-09T17:02:46.667040","MEAN_MOTION":15.30349724,"ECCENTRICITY":9.87e-5,"INCLINATION":97.3981,"RA_OF_ASC_NODE":151.9913,"ARG_OF_PERICENTER":45.3581,"MEAN_ANOMALY":314.774,"EPHEMERIS_TYPE":0,"CLASSIFICATION_TYPE":"U","NORAD_CAT_ID":62656,"ELEMENT_SET_NO":999,"REV_AT_EPOCH":6379,"BSTAR":0.00054902545,"MEAN_MOTION_DOT":0.00016057,"MEAN_MOTION_DDOT":0},{"OBJECT_NAME":"STARLINK-35393","OBJECT_ID":"2025-221E","EPOCH":"2026-03-09T10:46:33.143808","MEAN_MOTION":15.30205542,"ECCENTRICITY":0.00013987,"INCLINATION":53.1596,"RA_OF_ASC_NODE":89.6657,"ARG_OF_PERICENTER":94.3604,"MEAN_ANOMALY":265.7557,"EPHEMERIS_TYPE":0,"CLASSIFICATION_TYPE":"U","NORAD_CAT_ID":65827,"ELEMENT_SET_NO":999,"REV_AT_EPOCH":2604,"BSTAR":0.0007632145,"MEAN_MOTION_DOT":0.00022317,"MEAN_MOTION_DDOT":0}]
